{"type": "FeatureCollection", "features": [ {"type": "Feature", "properties": {"norad_id": 33905, "name": "COSMOS 2251 DEB", "group": "cosmos-2251-debris", "lat": 35.01518761074757, "lon": -30.204200813356852, "alt_km": 812.7595443738237, "timestamp": "2025-12-11T22:43:47.663464+00:00", "meta": {"OBJECT_NAME": "COSMOS 2251 DEB", "OBJECT_ID": "1993-036DJ", "EPOCH": "2025-12-11T09:45:34.507296", "MEAN_MOTION": 14.35379757, "ECCENTRICITY": 0.00589878, "INCLINATION": 73.8875, "RA_OF_ASC_NODE": 319.1115, "ARG_OF_PERICENTER": 208.8941, "MEAN_ANOMALY": 276.4802, "EPHEMERIS_TYPE": 0, "CLASSIFICATION_TYPE": "U", "NORAD_CAT_ID": 33905, "ELEMENT_SET_NO": 999, "REV_AT_EPOCH": 87668, "BSTAR": 0.0011659112, "MEAN_MOTION_DOT": 3.387e-05, "MEAN_MOTION_DDOT": 0}, "tle": {"line1": "1 33905U 93036DJ  25345.40664939  .00003387  00000+0  11659-2 0  9995", "line2": "2 33905  73.8875 319.1115 0058987 208.8941 276.4802 14.35379757876685"}}, "geometry": {"type": "Point", "coordinates": [-30.204200813356852, 35.01518761074757]}}, {"type": "Feature", "properties": {"norad_id": 33906, "name": "COSMOS 2251 DEB", "group": "cosmos-2251-debris", "lat": -37.79864333516549, "lon": 155.81371318906332, "alt_km": 726.3355495831165, "timestamp": "2025-12-11T22:43:47.663475+00:00", "meta": {"OBJECT_NAME": "COSMOS 2251 DEB", "OBJECT_ID": "1993-036DK", "EPOCH": "2025-12-10T22:47:43.500192", "MEAN_MOTION": 14.57035639, "ECCENTRICITY": 0.0036626, "INCLINATION": 74.031, "RA_OF_ASC_NODE": 324.8749, "ARG_OF_PERICENTER": 354.5854, "MEAN_ANOMALY": 36.316, "EPHEMERIS_TYPE": 0, "CLASSIFICATION_TYPE": "U", "NORAD_CAT_ID": 33906, "ELEMENT_SET_NO": 999, "REV_AT_EPOCH": 87982, "BSTAR": 0.0031774, "MEAN_MOTION_DOT": 0.0001443, "MEAN_MOTION_DDOT": 0}, "tle": {"line1": "1 33906U 93036DK  25344.94980903  .00014430  00000+0  31774-2 0  9997", "line2": "2 33906  74.0310 324.8749 0036626 354.5854  36.3160 14.57035639879828"}}, "geometry": {"type": "Point", "coordinates": [155.81371318906332, -37.79864333516549]}}, {"type": "Feature", "properties": {"norad_id": 33907, "name": "COSMOS 2251 DEB", "group": "cosmos-2251-debris", "lat": -73.97341586400027, "lon": -61.04395970970538, "alt_km": 877.5496424053281, "timestamp": "2025-12-11T22:43:47.663485+00:00", "meta": {"OBJECT_NAME": "COSMOS 2251 DEB", "OBJECT_ID": "1993-036DL", "EPOCH": "2025-12-10T10:17:45.557664", "MEAN_MOTION": 14.30470945, "ECCENTRICITY": 0.01124102, "INCLINATION": 74.0703, "RA_OF_ASC_NODE": 37.8483, "ARG_OF_PERICENTER": 94.0425, "MEAN_ANOMALY": 279.6363, "EPHEMERIS_TYPE": 0, "CLASSIFICATION_TYPE": "U", "NORAD_CAT_ID": 33907, "ELEMENT_SET_NO": 999, "REV_AT_EPOCH": 86547, "BSTAR": 0.0023554643, "MEAN_MOTION_DOT": 6.551e-05, "MEAN_MOTION_DDOT": 0}, "tle": {"line1": "1 33907U 93036DL  25344.42899951  .00006551  00000+0  23555-2 0  9996", "line2": "2 33907  74.0703  37.8483 0112410  94.0425 279.6363 14.30470945865474"}}, "geometry": {"type": "Point", "coordinates": [-61.04395970970538, -73.97341586400027]}}, {"type": "Feature", "properties": {"norad_id": 33908, "name": "COSMOS 2251 DEB", "group": "cosmos-2251-debris", "lat": 5.565010538201176, "lon": -151.20826234761572, "alt_km": 982.9861297154448, "timestamp": "2025-12-11T22:43:47.663496+00:00", "meta": {"OBJECT_NAME": "COSMOS 2251 DEB", "OBJECT_ID": "1993-036DM", "EPOCH": "2025-12-11T14:10:17.205024", "MEAN_MOTION": 14.07325228, "ECCENTRICITY": 0.02231844, "INCLINATION": 73.8377, "RA_OF_ASC_NODE": 207.8051, "ARG_OF_PERICENTER": 231.5515, "MEAN_ANOMALY": 126.5408, "EPHEMERIS_TYPE": 0, "CLASSIFICATION_TYPE": "U", "NORAD_CAT_ID": 33908, "ELEMENT_SET_NO": 999, "REV_AT_EPOCH": 85457, "BSTAR": 0.0027361801, "MEAN_MOTION_DOT": 5.744e-05, "MEAN_MOTION_DDOT": 0}, "tle": {"line1": "1 33908U 93036DM  25345.59047691  .00005744  00000+0  27362-2 0  9995", "line2": "2 33908  73.8377 207.8051 0223184 231.5515 126.5408 14.07325228854574"}}, "geometry": {"type": "Point", "coordinates": [-151.20826234761572, 5.565010538201176]}}, {"type": "Feature", "properties": {"norad_id": 33911, "name": "COSMOS 2251 DEB", "group": "cosmos-2251-debris", "lat": -55.892914041881056, "lon": 138.48894335272178, "alt_km": 662.0433066882979, "timestamp": "2025-12-11T22:43:47.663507+00:00", "meta": {"OBJECT_NAME": "COSMOS 2251 DEB", "OBJECT_ID": "1993-036DQ", "EPOCH": "2025-12-11T11:44:22.098624", "MEAN_MOTION": 14.74796622, "ECCENTRICITY": 0.00142629, "INCLINATION": 74.0904, "RA_OF_ASC_NODE": 164.2887, "ARG_OF_PERICENTER": 105.3404, "MEAN_ANOMALY": 285.0385, "EPHEMERIS_TYPE": 0, "CLASSIFICATION_TYPE": "U", "NORAD_CAT_ID": 33911, "ELEMENT_SET_NO": 999, "REV_AT_EPOCH": 88626, "BSTAR": 0.0039923309, "MEAN_MOTION_DOT": 0.00026852, "MEAN_MOTION_DDOT": 0}, "tle": {"line1": "1 33911U 93036DQ  25345.48914466  .00026852  00000+0  39923-2 0  9999", "line2": "2 33911  74.0904 164.2887 0014262 105.3404 285.0385 14.74796622886260"}}, "geometry": {"type": "Point", "coordinates": [138.48894335272178, -55.892914041881056]}}, {"type": "Feature", "properties": {"norad_id": 33912, "name": "COSMOS 2251 DEB", "group": "cosmos-2251-debris", "lat": -66.73718019096371, "lon": 52.97527180802878, "alt_km": 718.6013744126385, "timestamp": "2025-12-11T22:43:47.663517+00:00", "meta": {"OBJECT_NAME": "COSMOS 2251 DEB", "OBJECT_ID": "1993-036DR", "EPOCH": "2025-12-11T13:25:58.690848", "MEAN_MOTION": 14.51883266, "ECCENTRICITY": 0.0011474, "INCLINATION": 74.0335, "RA_OF_ASC_NODE": 191.9478, "ARG_OF_PERICENTER": 270.8108, "MEAN_ANOMALY": 118.1693, "EPHEMERIS_TYPE": 0, "CLASSIFICATION_TYPE": "U", "NORAD_CAT_ID": 33912, "ELEMENT_SET_NO": 999, "REV_AT_EPOCH": 88416, "BSTAR": 0.0010411215, "MEAN_MOTION_DOT": 4.174e-05, "MEAN_MOTION_DDOT": 0}, "tle": {"line1": "1 33912U 93036DR  25345.55970707  .00004174  00000+0  10411-2 0  9992", "line2": "2 33912  74.0335 191.9478 0011474 270.8108 118.1693 14.51883266884164"}}, "geometry": {"type": "Point", "coordinates": [52.97527180802878, -66.73718019096371]}}, {"type": "Feature", "properties": {"norad_id": 33913, "name": "COSMOS 2251 DEB", "group": "cosmos-2251-debris", "lat": -10.92386293407161, "lon": -178.036510323752, "alt_km": 717.801265017687, "timestamp": "2025-12-11T22:43:47.663536+00:00", "meta": {"OBJECT_NAME": "COSMOS 2251 DEB", "OBJECT_ID": "1993-036DS", "EPOCH": "2025-12-11T00:17:35.719008", "MEAN_MOTION": 14.48474621, "ECCENTRICITY": 0.00481713, "INCLINATION": 74.0334, "RA_OF_ASC_NODE": 186.8819, "ARG_OF_PERICENTER": 289.7669, "MEAN_ANOMALY": 225.6348, "EPHEMERIS_TYPE": 0, "CLASSIFICATION_TYPE": "U", "NORAD_CAT_ID": 33913, "ELEMENT_SET_NO": 999, "REV_AT_EPOCH": 88432, "BSTAR": 0.00075304879, "MEAN_MOTION_DOT": 2.839e-05, "MEAN_MOTION_DDOT": 0}, "tle": {"line1": "1 33913U 93036DS  25345.01221897  .00002839  00000+0  75305-3 0  9993", "line2": "2 33913  74.0334 186.8819 0048171 289.7669 225.6348 14.48474621884327"}}, "geometry": {"type": "Point", "coordinates": [-178.036510323752, -10.92386293407161]}}, {"type": "Feature", "properties": {"norad_id": 33914, "name": "COSMOS 2251 DEB", "group": "cosmos-2251-debris", "lat": 4.139194590027794, "lon": -164.7810876893904, "alt_km": 865.5476267549884, "timestamp": "2025-12-11T22:43:47.663548+00:00", "meta": {"OBJECT_NAME": "COSMOS 2251 DEB", "OBJECT_ID": "1993-036DT", "EPOCH": "2025-12-11T11:55:53.630400", "MEAN_MOTION": 13.7198412, "ECCENTRICITY": 0.03012695, "INCLINATION": 74.0915, "RA_OF_ASC_NODE": 17.1427, "ARG_OF_PERICENTER": 120.4854, "MEAN_ANOMALY": 350.8465, "EPHEMERIS_TYPE": 0, "CLASSIFICATION_TYPE": "U", "NORAD_CAT_ID": 33914, "ELEMENT_SET_NO": 999, "REV_AT_EPOCH": 84064, "BSTAR": 0.00060061615, "MEAN_MOTION_DOT": 7.34e-06, "MEAN_MOTION_DDOT": 0}, "tle": {"line1": "1 33914U 93036DT  25345.49714850  .00000734  00000+0  60062-3 0  9998", "line2": "2 33914  74.0915  17.1427 0301269 120.4854 350.8465 13.71984120840644"}}, "geometry": {"type": "Point", "coordinates": [-164.7810876893904, 4.139194590027794]}}, {"type": "Feature", "properties": {"norad_id": 33915, "name": "COSMOS 2251 DEB", "group": "cosmos-2251-debris", "lat": 61.36770500034949, "lon": -176.04295132565417, "alt_km": 696.0171667237591, "timestamp": "2025-12-11T22:43:47.663558+00:00", "meta": {"OBJECT_NAME": "COSMOS 2251 DEB", "OBJECT_ID": "1993-036DU", "EPOCH": "2025-12-11T12:42:43.221888", "MEAN_MOTION": 14.35079894, "ECCENTRICITY": 0.01044468, "INCLINATION": 74.0443, "RA_OF_ASC_NODE": 36.3246, "ARG_OF_PERICENTER": 129.2064, "MEAN_ANOMALY": 349.5238, "EPHEMERIS_TYPE": 0, "CLASSIFICATION_TYPE": "U", "NORAD_CAT_ID": 33915, "ELEMENT_SET_NO": 999, "REV_AT_EPOCH": 87740, "BSTAR": 0.00066763148, "MEAN_MOTION_DOT": 2e-05, "MEAN_MOTION_DDOT": 0}, "tle": {"line1": "1 33915U 93036DU  25345.52966692  .00002000  00000+0  66763-3 0  9998", "line2": "2 33915  74.0443  36.3246 0104446 129.2064 349.5238 14.35079894877402"}}, "geometry": {"type": "Point", "coordinates": [-176.04295132565417, 61.36770500034949]}}, {"type": "Feature", "properties": {"norad_id": 33916, "name": "COSMOS 2251 DEB", "group": "cosmos-2251-debris", "lat": 73.36691546626531, "lon": 115.0441548617029, "alt_km": 1143.3717642386391, "timestamp": "2025-12-11T22:43:47.663569+00:00", "meta": {"OBJECT_NAME": "COSMOS 2251 DEB", "OBJECT_ID": "1993-036DV", "EPOCH": "2025-12-11T14:16:47.156736", "MEAN_MOTION": 13.68611933, "ECCENTRICITY": 0.03253612, "INCLINATION": 74.0529, "RA_OF_ASC_NODE": 42.4696, "ARG_OF_PERICENTER": 214.853, "MEAN_ANOMALY": 299.2529, "EPHEMERIS_TYPE": 0, "CLASSIFICATION_TYPE": "U", "NORAD_CAT_ID": 33916, "ELEMENT_SET_NO": 999, "REV_AT_EPOCH": 83875, "BSTAR": 0.00068191771, "MEAN_MOTION_DOT": 8.24e-06, "MEAN_MOTION_DDOT": 0}, "tle": {"line1": "1 33916U 93036DV  25345.59499024  .00000824  00000+0  68192-3 0  9996", "line2": "2 33916  74.0529  42.4696 0325361 214.8530 299.2529 13.68611933838755"}}, "geometry": {"type": "Point", "coordinates": [115.0441548617029, 73.36691546626531]}}]}